{
    "links": {
        "self": "http://www.neowsapp.com/rest/v1/neo/3580326?api_key=iIulBulltgU6a56xZRHN4H3l9WmuAYTsLGpBGhQ2"
    },
    "id": "3580326",
    "neo_reference_id": "3580326",
    "name": "(2011 SO189)",
    "designation": "2011 SO189",
    "nasa_jpl_url": "http://ssd.jpl.nasa.gov/sbdb.cgi?sstr=3580326",
    "absolute_magnitude_h": 26.5,
    "estimated_diameter": {
        "kilometers": {
            "estimated_diameter_min": 0.0133215567,
            "estimated_diameter_max": 0.0297879063
        },
        "meters": {
            "estimated_diameter_min": 13.3215566698,
            "estimated_diameter_max": 29.7879062798
        },
        "miles": {
            "estimated_diameter_min": 0.008277629,
            "estimated_diameter_max": 0.0185093411
        },
        "feet": {
            "estimated_diameter_min": 43.7058959846,
            "estimated_diameter_max": 97.7293544391
        }
    },
    "is_potentially_hazardous_asteroid": false,
    "close_approach_data": [
        {
            "close_approach_date": "2011-09-24",
            "close_approach_date_full": "2011-Sep-24 05:00",
            "epoch_date_close_approach": 1316840400000,
            "relative_velocity": {
                "kilometers_per_second": "14.0086569157",
                "kilometers_per_hour": "50431.1648963638",
                "miles_per_hour": "31335.9646546322"
            },
            "miss_distance": {
                "astronomical": "0.0020465428",
                "lunar": "0.7961051492",
                "kilometers": "306158.443743836",
                "miles": "190238.0354874968"
            },
            "orbiting_body": "Moon"
        },
        {
            "close_approach_date": "2011-09-24",
            "close_approach_date_full": "2011-Sep-24 08:07",
            "epoch_date_close_approach": 1316851620000,
            "relative_velocity": {
                "kilometers_per_second": "13.0608840078",
                "kilometers_per_hour": "47019.1824282269",
                "miles_per_hour": "29215.8914371391"
            },
            "miss_distance": {
                "astronomical": "0.0030954086",
                "lunar": "1.2041139454",
                "kilometers": "463066.533339682",
                "miles": "287736.2013123316"
            },
            "orbiting_body": "Earth"
        }
    ],
    "orbital_data": {
        "orbit_id": "9",
        "orbit_determination_date": "2017-04-06 08:52:35",
        "first_observation_date": "2011-09-29",
        "last_observation_date": "2011-10-06",
        "data_arc_in_days": 7,
        "observations_used": 31,
        "orbit_uncertainty": "8",
        "minimum_orbit_intersection": ".00185119",
        "jupiter_tisserand_invariant": "3.623",
        "epoch_osculation": "2455835.5",
        "eccentricity": ".566868961957267",
        "semi_major_axis": "1.997215770314418",
        "inclination": "4.448223065645779",
        "ascending_node_longitude": "2.377920240695635",
        "orbital_period": "1030.945973676427",
        "perihelion_distance": ".8650561397916003",
        "perihelion_argument": "306.862537244201",
        "aphelion_distance": "3.129375400837235",
        "perihelion_time": "2455791.515684441529",
        "mean_anomaly": "15.35905275868447",
        "mean_motion": ".3491938561205244",
        "equinox": "J2000",
        "orbit_class": {
            "orbit_class_type": "APO",
            "orbit_class_description": "Near-Earth asteroid orbits which cross the Earth’s orbit similar to that of 1862 Apollo",
            "orbit_class_range": "a (semi-major axis) > 1.0 AU; q (perihelion) < 1.017 AU"
        }
    },
    "is_sentry_object": false
}